<?xml version="1.0" encoding="UTF-8" ?><gpx version="1.0" creator="GPSLogger 135 - http://gpslogger.mendhak.com/" xmlns:xsi="http://www.w3.org/2001/XMLSchema-instance" xmlns="http://www.topografix.com/GPX/1/0" xsi:schemaLocation="http://www.topografix.com/GPX/1/0 http://www.topografix.com/GPX/1/0/gpx.xsd"><time>2026-04-18T00:33:54.000Z</time><trk><name>20260418093300</name><trkseg><trkpt lat="31.84857616201043" lon="131.3528014998883"><ele>101.0</ele><time>2026-04-18T00:33:54.000Z</time><course>224.6</course><speed>21.38</speed><geoidheight>29.2</geoidheight><src>gps</src><sat>14</sat><hdop>0.6</hdop><vdop>0.8</vdop><pdop>1.2</pdop></trkpt>
<trkpt lat="31.847353200428188" lon="131.35139686055481"><ele>94.0</ele><time>2026-04-18T00:34:02.000Z</time><course>227.3</course><speed>22.72</speed><geoidheight>29.2</geoidheight><src>gps</src><sat>23</sat></trkpt>
<trkpt lat="31.840632087551057" lon="131.34388474747539"><ele>108.0</ele><time>2026-04-18T00:34:55.000Z</time><course>211.8</course><speed>15.99</speed><geoidheight>29.2</geoidheight><src>gps</src><sat>19</sat></trkpt>
<trkpt lat="31.8406332" lon="131.3438776"><ele>63.20000076293945</ele><time>2026-04-18T00:34:57.348Z</time><course>211.00493</course><speed>16.511515</speed><src>fused</src></trkpt>
<trkpt lat="31.831194022670388" lon="131.31356933154166"><ele>157.0</ele><time>2026-04-18T00:37:50.000Z</time><course>269.7</course><speed>17.84</speed><geoidheight>29.1</geoidheight><src>gps</src><sat>26</sat><hdop>0.4</hdop><vdop>0.6</vdop><pdop>0.8</pdop></trkpt>
<trkpt lat="31.834908169694245" lon="131.3088850211352"><ele>153.0</ele><time>2026-04-18T00:38:26.000Z</time><course>326.0</course><speed>16.59</speed><geoidheight>29.1</geoidheight><src>gps</src><sat>20</sat></trkpt>
<trkpt lat="31.838219189085066" lon="131.3044394273311"><ele>165.0</ele><time>2026-04-18T00:39:37.000Z</time><course>0.0</course><speed>0.11</speed><geoidheight>29.1</geoidheight><src>gps</src><sat>29</sat><hdop>0.4</hdop><vdop>0.6</vdop><pdop>0.8</pdop></trkpt>
<trkpt lat="31.838284274563193" lon="131.3043921533972"><ele>151.0</ele><time>2026-04-18T00:39:45.000Z</time><course>68.0</course><speed>0.25</speed><src>gps</src></trkpt>
<trkpt lat="31.849634628742933" lon="131.26112678088248"><ele>213.0</ele><time>2026-04-18T00:45:02.000Z</time><course>200.2</course><speed>15.089999</speed><geoidheight>29.1</geoidheight><src>gps</src><sat>26</sat><hdop>0.6</hdop><vdop>0.8</vdop><pdop>1.0</pdop></trkpt>
<trkpt lat="31.805156897753477" lon="131.1674980726093"><ele>217.0</ele><time>2026-04-18T00:56:26.000Z</time><course>213.3</course><speed>23.199999</speed><geoidheight>29.0</geoidheight><src>gps</src><sat>20</sat></trkpt>
<trkpt lat="31.8051569" lon="131.1674981"><ele>217.0</ele><time>2026-04-18T00:56:28.373Z</time><course>213.0</course><speed>23.199999</speed><src>fused</src></trkpt>
<trkpt lat="31.7992541519925" lon="131.16298366338015"><ele>217.0</ele><time>2026-04-18T00:57:19.000Z</time><course>213.2</course><speed>16.789999</speed><geoidheight>29.0</geoidheight><src>gps</src><sat>31</sat><hdop>0.4</hdop><vdop>0.6</vdop><pdop>0.6</pdop></trkpt>
<trkpt lat="31.794768199324608" lon="131.15961489267647"><ele>212.0</ele><time>2026-04-18T00:57:46.000Z</time><course>213.5</course><speed>23.5</speed><geoidheight>29.0</geoidheight><src>gps</src><sat>20</sat><hdop>0.8</hdop><vdop>1.2</vdop><pdop>1.4</pdop></trkpt>
<trkpt lat="31.788345482200384" lon="131.1547518800944"><ele>202.0</ele><time>2026-04-18T00:58:22.000Z</time><course>210.8</course><speed>21.91</speed><geoidheight>29.0</geoidheight><src>gps</src><sat>17</sat></trkpt>
<trkpt lat="31.787114473991096" lon="131.1541257519275"><ele>187.0</ele><time>2026-04-18T00:58:29.000Z</time><course>200.8</course><speed>19.81</speed><geoidheight>29.0</geoidheight><src>gps</src><sat>25</sat></trkpt>
<trkpt lat="31.786054959520698" lon="131.1536841094494"><ele>178.0</ele><time>2026-04-18T00:58:35.769Z</time><course>194.3</course><speed>16.43</speed><geoidheight>29.0</geoidheight><src>gps</src></trkpt>
<trkpt lat="31.785065266303718" lon="131.15355192683637"><ele>179.0</ele><time>2026-04-18T00:58:43.000Z</time><course>187.9</course><speed>16.6</speed><geoidheight>29.0</geoidheight><src>gps</src><sat>23</sat></trkpt>
<trkpt lat="31.78408416453749" lon="131.15322545170784"><ele>186.0</ele><time>2026-04-18T00:58:49.694Z</time><course>189.2</course><speed>15.82</speed><geoidheight>29.0</geoidheight><src>gps</src></trkpt>
<trkpt lat="31.78371699526906" lon="131.15313031710684"><ele>190.0</ele><time>2026-04-18T00:58:52.567Z</time><course>189.3</course><speed>15.67</speed><src>gps</src></trkpt>
<trkpt lat="31.7826676229015" lon="131.15294239483774"><ele>186.0</ele><time>2026-04-18T00:59:00.000Z</time><course>191.7</course><speed>15.5</speed><geoidheight>29.0</geoidheight><src>gps</src><sat>14</sat><hdop>0.8</hdop><vdop>1.0</vdop><pdop>1.4</pdop></trkpt>
<trkpt lat="31.782123050652444" lon="131.15281205624342"><ele>187.0</ele><time>2026-04-18T00:59:04.000Z</time><course>191.4</course><speed>15.429999</speed><src>gps</src></trkpt>
<trkpt lat="31.781694400124252" lon="131.15273251198232"><ele>187.0</ele><time>2026-04-18T00:59:07.000Z</time><course>192.2</course><speed>14.95</speed><src>gps</src></trkpt>
<trkpt lat="31.781279328279197" lon="131.1526196077466"><ele>187.0</ele><time>2026-04-18T00:59:10.000Z</time><course>193.4</course><speed>15.49</speed><src>gps</src></trkpt>
<trkpt lat="31.78086689673364" lon="131.1524919513613"><ele>185.0</ele><time>2026-04-18T00:59:13.000Z</time><course>195.8</course><speed>15.28</speed><src>gps</src></trkpt>
<trkpt lat="31.778642632998526" lon="131.15196171216667"><ele>183.0</ele><time>2026-04-18T00:59:29.000Z</time><course>191.4</course><speed>17.949999</speed><geoidheight>29.0</geoidheight><src>gps</src><sat>9</sat><hdop>1.4</hdop><vdop>2.6</vdop><pdop>3.2</pdop></trkpt>
<trkpt lat="31.77798121701926" lon="131.15180036053061"><ele>181.0</ele><time>2026-04-18T00:59:33.000Z</time><course>191.8</course><speed>19.49</speed><src>gps</src></trkpt>
<trkpt lat="31.734135397709906" lon="131.10752027481794"><ele>197.0</ele><time>2026-04-18T01:05:22.000Z</time><course>280.2</course><speed>20.779999</speed><geoidheight>29.0</geoidheight><src>gps</src><sat>21</sat><hdop>0.6</hdop><vdop>0.8</vdop><pdop>1.0</pdop></trkpt>
<trkpt lat="31.735520465299487" lon="131.0962058790028"><ele>193.0</ele><time>2026-04-18T01:06:11.000Z</time><course>271.8</course><speed>22.109999</speed><geoidheight>29.0</geoidheight><src>gps</src><sat>21</sat><hdop>0.6</hdop><vdop>0.6</vdop><pdop>1.0</pdop></trkpt>
<trkpt lat="31.735611241310835" lon="131.09407285228372"><ele>190.0</ele><time>2026-04-18T01:06:20.000Z</time><course>273.8</course><speed>23.199999</speed><geoidheight>29.0</geoidheight><src>gps</src><sat>16</sat><hdop>0.6</hdop><vdop>0.8</vdop><pdop>1.0</pdop></trkpt>
<trkpt lat="31.73588000703603" lon="131.08801466412842"><ele>189.0</ele><time>2026-04-18T01:06:45.000Z</time><course>273.0</course><speed>23.15</speed><geoidheight>29.0</geoidheight><src>gps</src><sat>25</sat><hdop>0.6</hdop><vdop>0.8</vdop><pdop>1.0</pdop></trkpt>
<trkpt lat="31.73628967255354" lon="131.07971808873117"><ele>182.0</ele><time>2026-04-18T01:07:30.000Z</time><course>272.4</course><speed>14.69</speed><geoidheight>29.0</geoidheight><src>gps</src><sat>20</sat><hdop>0.6</hdop><vdop>0.8</vdop><pdop>1.0</pdop></trkpt>
<trkpt lat="31.736439666710794" lon="131.0766133479774"><ele>178.0</ele><time>2026-04-18T01:07:57.000Z</time><course>286.0</course><speed>6.0499997</speed><geoidheight>29.0</geoidheight><src>gps</src><sat>25</sat><hdop>0.4</hdop><vdop>0.6</vdop><pdop>0.8</pdop></trkpt>
<trkpt lat="31.73653915990144" lon="131.072642756626"><ele>168.0</ele><time>2026-04-18T01:10:06.000Z</time><course>273.1</course><speed>13.44</speed><src>gps</src></trkpt>
<trkpt lat="31.73671937081963" lon="131.0708336904645"><ele>172.0</ele><time>2026-04-18T01:10:19.000Z</time><course>276.8</course><speed>13.099999</speed><geoidheight>29.0</geoidheight><src>gps</src><sat>22</sat><hdop>0.6</hdop><vdop>0.6</vdop><pdop>0.8</pdop></trkpt>
<trkpt lat="31.73345445189625" lon="131.06362751685083"><ele>174.0</ele><time>2026-04-18T01:11:06.000Z</time><course>221.0</course><speed>23.34</speed><geoidheight>29.0</geoidheight><src>gps</src><sat>24</sat><hdop>0.4</hdop><vdop>0.6</vdop><pdop>0.8</pdop></trkpt>
<trkpt lat="31.732817594893277" lon="131.06297582387924"><ele>175.0</ele><time>2026-04-18T01:11:10.000Z</time><course>221.0</course><speed>23.41</speed><src>gps</src></trkpt>
<trkpt lat="31.732334420084953" lon="131.0624981392175"><ele>174.0</ele><time>2026-04-18T01:11:13.000Z</time><course>220.8</course><speed>23.33</speed><src>gps</src></trkpt>
<trkpt lat="31.731857866980135" lon="131.06201534159482"><ele>174.0</ele><time>2026-04-18T01:11:16.000Z</time><course>220.7</course><speed>23.35</speed><src>gps</src></trkpt>
<trkpt lat="31.73137247096747" lon="131.06152550317347"><ele>174.0</ele><time>2026-04-18T01:11:19.000Z</time><course>220.9</course><speed>23.34</speed><src>gps</src></trkpt>
<trkpt lat="31.73089516349137" lon="131.0610493272543"><ele>174.0</ele><time>2026-04-18T01:11:22.000Z</time><course>220.4</course><speed>23.13</speed><src>gps</src></trkpt>
<trkpt lat="31.730426657013595" lon="131.06057566590607"><ele>173.0</ele><time>2026-04-18T01:11:25.000Z</time><course>220.6</course><speed>23.09</speed><src>gps</src></trkpt>
<trkpt lat="31.729948678985238" lon="131.06010007672012"><ele>172.0</ele><time>2026-04-18T01:11:28.000Z</time><course>220.7</course><speed>23.01</speed><src>gps</src></trkpt>
<trkpt lat="31.729481052607298" lon="131.05962105095387"><ele>173.0</ele><time>2026-04-18T01:11:31.000Z</time><course>220.7</course><speed>22.89</speed><src>gps</src></trkpt>
<trkpt lat="31.728998590260744" lon="131.05916465632617"><ele>174.0</ele><time>2026-04-18T01:11:34.000Z</time><course>216.1</course><speed>22.779999</speed><src>gps</src></trkpt>
<trkpt lat="31.72849073074758" lon="131.05877447873354"><ele>174.0</ele><time>2026-04-18T01:11:37.000Z</time><course>209.7</course><speed>22.619999</speed><src>gps</src></trkpt>
<trkpt lat="31.727948505431414" lon="131.05845764279366"><ele>174.0</ele><time>2026-04-18T01:11:40.000Z</time><course>202.8</course><speed>22.56</speed><src>gps</src></trkpt>
<trkpt lat="31.72738205641508" lon="131.05822194367647"><ele>175.0</ele><time>2026-04-18T01:11:43.000Z</time><course>196.4</course><speed>21.77</speed><src>gps</src></trkpt>
<trkpt lat="31.726827174425125" lon="131.05805858038366"><ele>177.0</ele><time>2026-04-18T01:11:46.000Z</time><course>194.5</course><speed>20.56</speed><src>gps</src></trkpt>
<trkpt lat="31.72448351047933" lon="131.0573892854154"><ele>178.0</ele><time>2026-04-18T01:12:01.000Z</time><course>194.7</course><speed>14.349999</speed><geoidheight>29.0</geoidheight><src>gps</src><sat>26</sat><hdop>0.6</hdop><vdop>0.8</vdop><pdop>1.0</pdop></trkpt>
<trkpt lat="31.72402024269104" lon="131.05725148692727"><ele>177.0</ele><time>2026-04-18T01:12:05.000Z</time><course>194.6</course><speed>11.7699995</speed><src>gps</src></trkpt>
<trkpt lat="31.723732533864677" lon="131.05716523714364"><ele>177.0</ele><time>2026-04-18T01:12:08.000Z</time><course>194.8</course><speed>9.88</speed><src>gps</src></trkpt>
<trkpt lat="31.72331444453448" lon="131.05703338980675"><ele>175.0</ele><time>2026-04-18T01:12:14.000Z</time><course>194.2</course><speed>6.42</speed><geoidheight>29.0</geoidheight><src>gps</src><sat>25</sat><hdop>0.6</hdop><vdop>0.6</vdop><pdop>0.8</pdop></trkpt>
<trkpt lat="31.722952681593597" lon="131.05694278143346"><ele>175.0</ele><time>2026-04-18T01:12:23.000Z</time><course>183.3</course><speed>2.5</speed><geoidheight>29.0</geoidheight><src>gps</src><sat>19</sat><hdop>0.8</hdop><vdop>1.2</vdop><pdop>1.4</pdop></trkpt>
<trkpt lat="31.722285733558238" lon="131.05675184167922"><ele>174.0</ele><time>2026-04-18T01:13:42.000Z</time><course>194.7</course><speed>8.09</speed><geoidheight>29.0</geoidheight><src>gps</src><sat>22</sat><hdop>0.6</hdop><vdop>0.6</vdop><pdop>1.0</pdop></trkpt>
<trkpt lat="31.721971035003662" lon="131.05664061382413"><ele>176.0</ele><time>2026-04-18T01:13:46.000Z</time><course>195.3</course><speed>10.32</speed><src>gps</src></trkpt>
<trkpt lat="31.72168533783406" lon="131.0565472394228"><ele>176.0</ele><time>2026-04-18T01:13:49.000Z</time><course>194.2</course><speed>11.7</speed><src>gps</src></trkpt>
<trkpt lat="31.721367286518216" lon="131.05644950643182"><ele>175.0</ele><time>2026-04-18T01:13:52.000Z</time><course>195.8</course><speed>12.92</speed><src>gps</src></trkpt>
<trkpt lat="31.720998901873827" lon="131.05633702129126"><ele>176.0</ele><time>2026-04-18T01:13:55.000Z</time><course>194.6</course><speed>14.66</speed><src>gps</src></trkpt>
<trkpt lat="31.72058001626283" lon="131.05621472932398"><ele>177.0</ele><time>2026-04-18T01:13:58.000Z</time><course>194.4</course><speed>16.41</speed><src>gps</src></trkpt>
<trkpt lat="31.720132129266858" lon="131.0560786910355"><ele>176.0</ele><time>2026-04-18T01:14:01.000Z</time><course>195.2</course><speed>17.91</speed><src>gps</src></trkpt>
<trkpt lat="31.719645895063877" lon="131.05590116232634"><ele>177.0</ele><time>2026-04-18T01:14:04.000Z</time><course>200.7</course><speed>19.15</speed><src>gps</src></trkpt>
<trkpt lat="31.7191551765427" lon="131.05563763529062"><ele>177.0</ele><time>2026-04-18T01:14:07.000Z</time><course>207.0</course><speed>20.63</speed><src>gps</src></trkpt>
<trkpt lat="31.718643880449235" lon="131.0552961565554"><ele>177.0</ele><time>2026-04-18T01:14:10.000Z</time><course>212.6</course><speed>22.4</speed><src>gps</src></trkpt>
<trkpt lat="31.71814553439617" lon="131.05486951768398"><ele>176.0</ele><time>2026-04-18T01:14:13.000Z</time><course>219.1</course><speed>22.689999</speed><src>gps</src></trkpt>
<trkpt lat="31.717683104798198" lon="131.05438554659486"><ele>175.0</ele><time>2026-04-18T01:14:16.000Z</time><course>224.4</course><speed>22.689999</speed><src>gps</src></trkpt>
<trkpt lat="31.717262668535113" lon="131.0538346040994"><ele>174.0</ele><time>2026-04-18T01:14:19.000Z</time><course>231.2</course><speed>22.519999</speed><src>gps</src></trkpt>
<trkpt lat="31.716877352446318" lon="131.05328047648072"><ele>174.0</ele><time>2026-04-18T01:14:22.000Z</time><course>231.6</course><speed>22.199999</speed><src>gps</src></trkpt>
<trkpt lat="31.71649652067572" lon="131.0399141907692"><ele>187.0</ele><time>2026-04-18T01:15:24.000Z</time><course>291.9</course><speed>19.58</speed><geoidheight>29.0</geoidheight><src>gps</src><sat>15</sat><hdop>0.8</hdop><vdop>1.0</vdop><pdop>1.4</pdop></trkpt>
<trkpt lat="31.71833618078381" lon="131.03424140252173"><ele>189.0</ele><time>2026-04-18T01:15:58.000Z</time><course>289.8</course><speed>15.469999</speed><geoidheight>29.0</geoidheight><src>gps</src><sat>21</sat><hdop>0.6</hdop><vdop>0.8</vdop><pdop>1.0</pdop></trkpt>
<trkpt lat="31.72153358347714" lon="131.02472081780434"><ele>200.0</ele><time>2026-04-18T01:16:50.000Z</time><course>291.0</course><speed>23.83</speed><geoidheight>29.0</geoidheight><src>gps</src><sat>17</sat><hdop>0.6</hdop><vdop>0.8</vdop><pdop>1.0</pdop></trkpt>
<trkpt lat="31.723250867798924" lon="131.01965848356485"><ele>212.0</ele><time>2026-04-18T01:17:12.000Z</time><course>292.1</course><speed>22.57</speed><geoidheight>29.0</geoidheight><src>gps</src><sat>19</sat><hdop>0.6</hdop><vdop>0.8</vdop><pdop>1.0</pdop></trkpt>
<trkpt lat="31.72353166155517" lon="131.0187902022153"><ele>213.0</ele><time>2026-04-18T01:17:16.000Z</time><course>291.3</course><speed>22.38</speed><src>gps</src></trkpt>
<trkpt lat="31.72372540924698" lon="131.01813959889114"><ele>214.0</ele><time>2026-04-18T01:17:19.000Z</time><course>291.1</course><speed>21.91</speed><src>gps</src></trkpt>
<trkpt lat="31.72395792324096" lon="131.01748463697731"><ele>214.0</ele><time>2026-04-18T01:17:22.000Z</time><course>291.5</course><speed>21.41</speed><src>gps</src></trkpt>
<trkpt lat="31.724163531325758" lon="131.01683730259538"><ele>215.0</ele><time>2026-04-18T01:17:25.000Z</time><course>291.2</course><speed>21.22</speed><src>gps</src></trkpt>
<trkpt lat="31.72477105166763" lon="131.01480619981885"><ele>211.0</ele><time>2026-04-18T01:17:35.000Z</time><course>291.3</course><speed>20.38</speed><geoidheight>29.0</geoidheight><src>gps</src><sat>18</sat><hdop>0.6</hdop><vdop>1.0</vdop><pdop>1.2</pdop></trkpt>
<trkpt lat="31.725247772410512" lon="131.01345696486533"><ele>211.0</ele><time>2026-04-18T01:17:42.000Z</time><course>292.1</course><speed>19.56</speed><geoidheight>29.0</geoidheight><src>gps</src><sat>20</sat><hdop>0.6</hdop><vdop>0.8</vdop><pdop>1.0</pdop></trkpt>
<trkpt lat="31.725930897518992" lon="131.01135922595859"><ele>218.0</ele><time>2026-04-18T01:17:53.000Z</time><course>291.3</course><speed>18.539999</speed><geoidheight>29.0</geoidheight><src>gps</src><sat>17</sat><hdop>0.6</hdop><vdop>1.0</vdop><pdop>1.2</pdop></trkpt>
<trkpt lat="31.72618243843317" lon="131.01062740199268"><ele>220.0</ele><time>2026-04-18T01:17:57.000Z</time><course>291.6</course><speed>18.66</speed><src>gps</src></trkpt>
<trkpt lat="31.726367720402777" lon="131.0100565943867"><ele>219.0</ele><time>2026-04-18T01:18:00.000Z</time><course>290.8</course><speed>19.01</speed><src>gps</src></trkpt>
<trkpt lat="31.77281859330833" lon="130.9221361298114"><ele>321.0</ele><time>2026-04-18T01:27:30.000Z</time><course>273.6</course><speed>12.92</speed><src>gps</src></trkpt>
<trkpt lat="31.772868549451232" lon="130.92038590461016"><ele>322.0</ele><time>2026-04-18T01:27:42.000Z</time><course>274.5</course><speed>13.82</speed><geoidheight>28.9</geoidheight><src>gps</src><sat>15</sat><hdop>0.8</hdop><vdop>1.6</vdop><pdop>1.8</pdop></trkpt>
<trkpt lat="31.81838148739189" lon="130.83680408075452"><ele>242.0</ele><time>2026-04-18T01:38:49.000Z</time><course>301.3</course><speed>0.01</speed><geoidheight>28.8</geoidheight><src>gps</src><sat>16</sat><hdop>0.6</hdop><vdop>1.0</vdop><pdop>1.2</pdop></trkpt>
<trkpt lat="31.81839758064598" lon="130.83681045100093"><ele>243.0</ele><time>2026-04-18T01:39:01.000Z</time><course>301.3</course><speed>0.01</speed><geoidheight>28.8</geoidheight><src>gps</src><sat>17</sat><hdop>0.6</hdop><vdop>1.0</vdop><pdop>1.2</pdop></trkpt>
<trkpt lat="31.739826374687254" lon="130.6634674128145"><ele>41.0</ele><time>2026-04-18T02:05:06.000Z</time><course>272.4</course><speed>19.6</speed><geoidheight>28.7</geoidheight><src>gps</src><sat>15</sat><hdop>0.6</hdop><vdop>1.2</vdop><pdop>1.4</pdop></trkpt>
<trkpt lat="31.738343029282987" lon="130.65743872895837"><ele>41.0</ele><time>2026-04-18T02:05:35.000Z</time><course>246.5</course><speed>20.67</speed><geoidheight>28.7</geoidheight><src>gps</src><sat>16</sat><hdop>0.6</hdop><vdop>1.2</vdop><pdop>1.4</pdop></trkpt>
<trkpt lat="31.737605296075344" lon="130.65527443774045"><ele>43.0</ele><time>2026-04-18T02:05:46.000Z</time><course>247.7</course><speed>20.55</speed><geoidheight>28.7</geoidheight><src>gps</src><sat>20</sat><hdop>0.6</hdop><vdop>0.8</vdop><pdop>1.0</pdop></trkpt>
<trkpt lat="31.735999155789614" lon="130.650788359344"><ele>47.0</ele><time>2026-04-18T02:06:09.000Z</time><course>251.8</course><speed>19.38</speed><geoidheight>28.7</geoidheight><src>gps</src><sat>12</sat><hdop>0.8</hdop><vdop>1.8</vdop><pdop>2.0</pdop></trkpt>
<trkpt lat="31.732613118365407" lon="130.6414149608463"><ele>48.0</ele><time>2026-04-18T02:06:52.000Z</time><course>247.1</course><speed>23.41</speed><geoidheight>28.7</geoidheight><src>gps</src><sat>23</sat><hdop>0.6</hdop><vdop>1.0</vdop><pdop>1.2</pdop></trkpt>
<trkpt lat="31.732267448678613" lon="130.64051415771246"><ele>50.0</ele><time>2026-04-18T02:06:56.000Z</time><course>247.4</course><speed>23.119999</speed><src>gps</src></trkpt>
<trkpt lat="31.73202567268163" lon="130.6398424319923"><ele>50.0</ele><time>2026-04-18T02:06:59.000Z</time><course>247.2</course><speed>23.039999</speed><src>gps</src></trkpt>
<trkpt lat="31.731782513670623" lon="130.63916425220668"><ele>50.0</ele><time>2026-04-18T02:07:02.000Z</time><course>247.3</course><speed>23.0</speed><src>gps</src></trkpt>
<trkpt lat="31.73155398108065" lon="130.63848950900137"><ele>49.0</ele><time>2026-04-18T02:07:05.000Z</time><course>247.2</course><speed>22.789999</speed><src>gps</src></trkpt>
<trkpt lat="31.731319916434586" lon="130.63781845383346"><ele>50.0</ele><time>2026-04-18T02:07:08.000Z</time><course>247.1</course><speed>22.779999</speed><src>gps</src></trkpt>
<trkpt lat="31.7310739075765" lon="130.6371530983597"><ele>51.0</ele><time>2026-04-18T02:07:11.000Z</time><course>244.8</course><speed>22.58</speed><src>gps</src></trkpt>
<trkpt lat="31.71330900862813" lon="130.62171262688935"><ele>49.0</ele><time>2026-04-18T02:08:54.000Z</time><course>215.3</course><speed>26.31</speed><geoidheight>28.7</geoidheight><src>gps</src><sat>20</sat><hdop>0.6</hdop><vdop>0.8</vdop><pdop>1.0</pdop></trkpt>
<trkpt lat="31.711115506477654" lon="130.61992552131414"><ele>46.0</ele><time>2026-04-18T02:09:05.000Z</time><course>215.5</course><speed>26.26</speed><geoidheight>28.7</geoidheight><src>gps</src><sat>13</sat><hdop>0.6</hdop><vdop>1.4</vdop><pdop>1.6</pdop></trkpt>
<trkpt lat="31.69657072518021" lon="130.61349567957222"><ele>38.0</ele><time>2026-04-18T02:10:42.000Z</time><course>165.6</course><speed>19.43</speed><geoidheight>28.7</geoidheight><src>gps</src><sat>19</sat><hdop>0.6</hdop><vdop>1.0</vdop><pdop>1.2</pdop></trkpt>
</trkseg></trk></gpx>