<?xml version="1.0" encoding="UTF-8"?>
<gpx version="1.1" creator="felicia-experiment">
  <trk><name>Osaka to Nara</name><trkseg>
    <trkpt lat="34.6937" lon="135.5023"><time>2026-04-01T01:00:00Z</time></trkpt>
    <trkpt lat="34.6900" lon="135.5100"><time>2026-04-01T01:20:00Z</time></trkpt>
    <trkpt lat="34.6800" lon="135.5200"><time>2026-04-01T02:00:00Z</time></trkpt>
    <trkpt lat="34.6750" lon="135.8000"><time>2026-04-01T03:30:00Z</time></trkpt>
    <trkpt lat="34.6851" lon="135.8430"><time>2026-04-01T04:00:00Z</time></trkpt>
    <trkpt lat="34.6855" lon="135.8435"><time>2026-04-01T05:00:00Z</time></trkpt>
  </trkseg></trk>
</gpx>
