<?xml version="1.0" encoding="UTF-8"?>
<gpx version="1.1" creator="felicia-public-izu" xmlns="http://www.topografix.com/GPX/1/1">
  <trk><name>Izu Trip — public rounded route</name><trkseg>
    <trkpt lat="35.8163" lon="139.7074" />
    <trkpt lat="35.8159" lon="139.7043" />
    <trkpt lat="35.7975" lon="139.7186" />
    <trkpt lat="35.7637" lon="139.7274" />
    <trkpt lat="35.7371" lon="139.7623" />
    <trkpt lat="35.7147" lon="139.7772" />
    <trkpt lat="35.7144" lon="139.776" />
    <trkpt lat="35.7171" lon="139.7812" />
    <trkpt lat="35.7108" lon="139.786" />
    <trkpt lat="35.7066" lon="139.8032" />
    <trkpt lat="35.7019" lon="139.7973" />
    <trkpt lat="35.6961" lon="139.7901" />
    <trkpt lat="35.6829" lon="139.789" />
    <trkpt lat="35.6825" lon="139.7805" />
    <trkpt lat="35.6908" lon="139.7613" />
    <trkpt lat="35.6658" lon="139.7374" />
    <trkpt lat="35.6569" lon="139.6991" />
    <trkpt lat="35.6539" lon="139.6929" />
    <trkpt lat="35.6513" lon="139.6857" />
    <trkpt lat="35.6339" lon="139.6624" />
    <trkpt lat="35.6272" lon="139.609" />
    <trkpt lat="35.5999" lon="139.5684" />
    <trkpt lat="35.5504" lon="139.5471" />
    <trkpt lat="35.5417" lon="139.5376" />
    <trkpt lat="35.5397" lon="139.5368" />
    <trkpt lat="35.523" lon="139.5059" />
    <trkpt lat="35.5119" lon="139.4862" />
    <trkpt lat="35.4679" lon="139.4397" />
    <trkpt lat="35.5065" lon="139.4823" />
    <trkpt lat="35.4252" lon="139.391" />
    <trkpt lat="35.4138" lon="139.3192" />
    <trkpt lat="35.3621" lon="139.2533" />
    <trkpt lat="35.3431" lon="139.204" />
    <trkpt lat="35.3511" lon="139.1293" />
    <trkpt lat="35.3544" lon="139.1182" />
    <trkpt lat="35.3584" lon="139.1091" />
    <trkpt lat="35.3638" lon="139.1019" />
    <trkpt lat="35.3666" lon="139.0627" />
    <trkpt lat="35.3576" lon="138.993" />
    <trkpt lat="35.3141" lon="138.9677" />
    <trkpt lat="35.313" lon="138.9671" />
    <trkpt lat="35.3137" lon="138.9678" />
    <trkpt lat="35.288" lon="138.9323" />
    <trkpt lat="35.2841" lon="138.9255" />
    <trkpt lat="35.278" lon="138.9198" />
    <trkpt lat="35.2315" lon="138.8954" />
    <trkpt lat="35.1553" lon="138.8904" />
    <trkpt lat="35.1253" lon="138.947" />
    <trkpt lat="35.0739" lon="138.925" />
    <trkpt lat="34.9827" lon="138.9367" />
    <trkpt lat="34.8675" lon="138.9193" />
    <trkpt lat="34.7474" lon="138.9919" />
    <trkpt lat="34.7056" lon="138.9782" />
    <trkpt lat="34.6652" lon="138.9638" />
    <trkpt lat="34.677" lon="138.9588" />
    <trkpt lat="34.6529" lon="138.8568" />
    <trkpt lat="34.6821" lon="138.884" />
    <trkpt lat="34.678" lon="138.9299" />
    <trkpt lat="34.6769" lon="138.9677" />
    <trkpt lat="34.7309" lon="138.9938" />
    <trkpt lat="34.7598" lon="139.0197" />
    <trkpt lat="34.8002" lon="139.0608" />
    <trkpt lat="34.8242" lon="139.0729" />
    <trkpt lat="34.8928" lon="139.1178" />
    <trkpt lat="34.9065" lon="139.0987" />
    <trkpt lat="34.9071" lon="139.0954" />
    <trkpt lat="34.8993" lon="139.0929" />
    <trkpt lat="34.8844" lon="139.1161" />
    <trkpt lat="34.8917" lon="139.1397" />
    <trkpt lat="34.9072" lon="139.1198" />
    <trkpt lat="34.9537" lon="139.1168" />
    <trkpt lat="35.007" lon="139.0847" />
    <trkpt lat="35.0568" lon="139.0686" />
    <trkpt lat="35.0967" lon="139.0748" />
    <trkpt lat="35.1439" lon="139.1118" />
    <trkpt lat="35.1548" lon="139.1283" />
    <trkpt lat="35.168" lon="139.1359" />
    <trkpt lat="35.1984" lon="139.1314" />
    <trkpt lat="35.2223" lon="139.1487" />
    <trkpt lat="35.2588" lon="139.1794" />
    <trkpt lat="35.2965" lon="139.2624" />
    <trkpt lat="35.2991" lon="139.2621" />
    <trkpt lat="35.3098" lon="139.274" />
    <trkpt lat="35.3605" lon="139.3039" />
    <trkpt lat="35.4206" lon="139.362" />
    <trkpt lat="35.4708" lon="139.4439" />
    <trkpt lat="35.5291" lon="139.5133" />
    <trkpt lat="35.5332" lon="139.5271" />
    <trkpt lat="35.5966" lon="139.5758" />
    <trkpt lat="35.6244" lon="139.6378" />
    <trkpt lat="35.652" lon="139.6875" />
    <trkpt lat="35.6566" lon="139.7371" />
    <trkpt lat="35.6781" lon="139.7751" />
    <trkpt lat="35.6894" lon="139.7667" />
    <trkpt lat="35.7035" lon="139.7718" />
    <trkpt lat="35.7079" lon="139.774" />
    <trkpt lat="35.7323" lon="139.7665" />
    <trkpt lat="35.7646" lon="139.7258" />
    <trkpt lat="35.8064" lon="139.7137" />
    <trkpt lat="35.8162" lon="139.7077" />
    <trkpt lat="35.817" lon="139.7126" />
  </trkseg></trk>
</gpx>
